MEAN_MOTION;ECCENTRICITY;INCLINATION;RA_OF_ASC_NODE;ARG_OF_PERICENTER;MEAN_ANOMALY;BSTAR;MEAN_MOTION_DOT;MEAN_MOTION_DDOT;TYPE
0.98483527;0.0072573;4.8242;68.7869;291.798;277.2664;0;-2.09E-6;0;Intelsat
0.98483687;0.0072567;4.8263;68.781;291.8553;273.1105;0;-2.3E-6;0;Intelsat
0.98483759;0.0072561;4.8284;68.7748;291.9155;294.29;0;-2.46E-6;0;Intelsat
0.98483708;0.0072563;4.8299;68.7706;291.9525;198.6309;0;-2.52E-6;0;Intelsat
0.98483716;0.0072559;4.8303;68.7695;291.963;264.7853;0;-2.52E-6;0;Intelsat
0.98483711;0.0072557;4.8305;68.7691;291.9658;290.1882;0;-2.53E-6;0;Intelsat
0.98483638;0.007256;4.8315;68.7663;291.9898;112.1094;0;-2.54E-6;0;Intelsat
0.98483587;0.0072561;4.832;68.7648;292.0039;202.2524;0;-2.53E-6;0;Intelsat
0.98483299;0.0072559;4.8344;68.7584;292.0655;256.4392;0;-2.45E-6;0;Intelsat
0.98483251;0.0072556;4.8347;68.7576;292.0746;310.0763;0;-2.43E-6;0;Intelsat
0.98482911;0.0072561;4.8366;68.7525;292.1245;277.6731;0;-2.29E-6;0;Intelsat
0.98482479;0.0072565;4.8387;68.7471;292.1758;273.4928;0;-2.07E-6;0;Intelsat
0.98481992;0.0072571;4.8407;68.7418;292.2333;269.3172;0;-1.8E-6;0;Intelsat
0.98481497;0.0072578;4.8426;68.737;292.2821;239.7549;0;-1.52E-6;0;Intelsat
0.98481161;0.0072577;4.844;68.7337;292.3194;108.5848;0;-1.31E-6;0;Intelsat
0.98480956;0.0072586;4.8448;68.7317;292.344;250.9366;0;-1.18E-6;0;Intelsat
0.98480469;0.0072596;4.8469;68.7266;292.4072;252.1513;0;-8.6E-7;0;Intelsat
0.98480222;0.0072596;4.8481;68.7236;292.4445;100.1999;0;-6.8E-7;0;Intelsat
0.98480057;0.0072604;4.849;68.7214;292.4721;252.5829;0;-5.6E-7;0;Intelsat
0.9847984;0.0072603;4.8502;68.7186;292.5116;92.0542;0;-4.0E-7;0;Intelsat
0.9847973;0.0072608;4.8509;68.7167;292.5357;222.9448;0;-3.1E-7;0;Intelsat
0.98479557;0.0072608;4.8523;68.7135;292.5835;91.7584;0;-1.6E-7;0;Intelsat
0.98479478;0.0072613;4.8532;68.7113;292.6116;244.1201;0;-7.0E-8;0;Intelsat
0.9847937;0.0072615;4.8553;68.7062;292.6836;239.9118;0;9.0E-8;0;Intelsat
0.98479351;0.0072616;4.8566;68.7032;292.7265;89.5936;0;1.6E-7;0;Intelsat
0.9847936;0.0072615;4.8573;68.7016;292.7503;210.3372;0;1.9E-7;0;Intelsat
0.98479495;0.0072612;4.8596;68.6962;292.8317;231.5067;0;2.2E-7;0;Intelsat
0.98479613;0.0072613;4.8609;68.6932;292.8822;100.3345;0;2.1E-7;0;Intelsat
0.98479684;0.0072608;4.8615;68.692;292.9022;191.4204;0;1.9E-7;0;Intelsat
0.98479978;0.0072603;4.8634;68.6876;292.9771;159.1902;0;1.0E-7;0;Intelsat
0.98480312;0.00726;4.8652;68.6836;293.0383;91.8861;0;-2.0E-8;0;Intelsat
0.98480723;0.007259;4.8671;68.6791;293.1079;62.2893;0;-2.0E-7;0;Intelsat
0.98480754;0.0072589;4.8673;68.6788;293.1148;87.7056;0;-2.1E-7;0;Intelsat
0.9848099;0.0072574;4.8685;68.6761;293.1569;290.9016;0;-3.5E-7;0;Intelsat
0.98481236;0.0072574;4.8696;68.6737;293.1958;108.8935;0;-4.7E-7;0;Intelsat
0.98481424;0.007256;4.8703;68.6719;293.2244;241.9753;0;-5.7E-7;0;Intelsat
0.98482222;0.0072533;4.874;68.6636;293.3567;150.3606;0;-1.06E-6;0;Intelsat
0.98482615;0.0072513;4.8761;68.6587;293.4239;142.0133;0;-1.33E-6;0;Intelsat
0.98482943;0.0072489;4.8781;68.6537;293.4898;134.9138;0;-1.59E-6;0;Intelsat
0.98483044;0.0072473;4.8788;68.6519;293.5132;260.6399;0;-1.68E-6;0;Intelsat
0.98483163;0.0072466;4.8799;68.6491;293.5421;87.9319;0;-1.79E-6;0;Intelsat
0.98483332;0.0072437;4.8821;68.6436;293.6088;109.15;0;-2.0E-6;0;Intelsat
0.98483363;0.0072421;4.883;68.6413;293.6354;256.8646;0;-2.06E-6;0;Intelsat
0.98483388;0.007241;4.8843;68.638;293.666;125.3429;0;-2.13E-6;0;Intelsat
0.98483348;0.0072386;4.8862;68.633;293.7151;100.7927;0;-2.2E-6;0;Intelsat
0.98483294;0.007237;4.8874;68.6303;293.7456;295.5932;0;-2.22E-6;0;Intelsat
0.98483232;0.0072364;4.8883;68.628;293.763;96.6439;0;-2.21E-6;0;Intelsat
0.98483013;0.0072344;4.8904;68.6229;293.8093;92.4558;0;-2.16E-6;0;Intelsat
0.98482773;0.0072325;4.8923;68.6184;293.8545;62.8755;0;-2.05E-6;0;Intelsat
0.98482445;0.0072308;4.8943;68.6137;293.9031;58.6994;0;-1.9E-6;0;Intelsat
0.98482059;0.0072292;4.8966;68.6087;293.9541;79.9432;0;-1.69E-6;0;Intelsat
0.98482031;0.0072292;4.8967;68.6083;293.9568;105.3641;0;-1.67E-6;0;Intelsat
0.98481665;0.0072278;4.8988;68.6037;294.0076;101.1793;0;-1.45E-6;0;Intelsat
0.98481323;0.0072269;4.9007;68.5996;294.0542;71.5845;0;-1.22E-6;0;Intelsat
0.9848127;0.0072269;4.901;68.5989;294.0589;119.622;0;-1.19E-6;0;Intelsat
0.9848093;0.0072258;4.9029;68.5947;294.1114;92.8139;0;-9.5E-7;0;Intelsat
0.98480813;0.0072256;4.9038;68.5928;294.1374;245.2012;0;-8.5E-7;0;Intelsat
0.98480654;0.0072248;4.9048;68.5906;294.1674;63.1995;0;-7.3E-7;0;Intelsat
0.98480626;0.0072246;4.905;68.5902;294.1711;88.6188;0;-7.1E-7;0;Intelsat
0.98480488;0.0072243;4.906;68.588;294.2016;266.4281;0;-5.9E-7;0;Intelsat
0.98480348;0.0072234;4.9071;68.5858;294.2341;84.4335;0;-4.7E-7;0;Intelsat
0.9848021;0.007223;4.9083;68.5832;294.2693;287.6431;0;-3.5E-7;0;Intelsat
0.98480117;0.0072221;4.9092;68.5813;294.2977;80.2207;0;-2.6E-7;0;Intelsat
0.98480106;0.007222;4.9093;68.581;294.3017;105.6399;0;-2.5E-7;0;Intelsat
0.98479966;0.0072206;4.9113;68.5768;294.364;76.0361;0;-8.0E-8;0;Intelsat
0.98479906;0.0072191;4.9133;68.5724;294.4296;71.8156;0;6.0E-8;0;Intelsat
0.98479901;0.0072189;4.9135;68.5721;294.4345;97.2336;0;6.0E-8;0;Intelsat
0.98479908;0.0072173;4.9154;68.568;294.4992;67.5993;0;1.5E-7;0;Intelsat
0.98479945;0.0072159;4.9168;68.5651;294.5417;305.24;0;1.9E-7;0;Intelsat
0.98479995;0.0072152;4.9177;68.5633;294.5714;88.8397;0;2.0E-7;0;Intelsat
0.9848012;0.0072135;4.9189;68.5608;294.608;295.9604;0;2.0E-7;0;Intelsat
0.98480306;0.007211;4.921;68.5565;294.6763;287.7869;0;1.5E-7;0;Intelsat
0.98480434;0.00721;4.922;68.5543;294.7142;105.771;0;1.1E-7;0;Intelsat
0.98480616;0.0072078;4.9232;68.552;294.7507;311.2882;0;4.0E-8;0;Intelsat
0.98480966;0.0072044;4.9252;68.5481;294.8184;280.5184;0;-1.1E-7;0;Intelsat
0.98481319;0.0072016;4.9271;68.5443;294.8798;245.6187;0;-3.0E-7;0;Intelsat
0.98481359;0.0072012;4.9272;68.544;294.8832;275.1797;0;-3.2E-7;0;Intelsat
0.9848177;0.0071974;4.9293;68.5397;294.951;270.9581;0;-5.7E-7;0;Intelsat
0.98482174;0.0071937;4.9312;68.5358;295.0128;241.359;0;-8.3E-7;0;Intelsat
0.98482224;0.0071932;4.9314;68.5354;295.0171;276.7487;0;-8.6E-7;0;Intelsat
0.98482671;0.0071892;4.9334;68.531;295.0779;273.4177;0;-1.16E-6;0;Intelsat
0.98483012;0.0071853;4.9352;68.5269;295.133;233.0053;0;-1.44E-6;0;Intelsat
0.98483399;0.0071801;4.9375;68.5216;295.1915;279.6512;0;-1.77E-6;0;Intelsat
0.98483634;0.0071759;4.9394;68.5171;295.2386;251.042;0;-2.01E-6;0;Intelsat
0.98483671;0.0071751;4.9397;68.5164;295.244;308.1135;0;-2.05E-6;0;Intelsat
0.98483825;0.0071718;4.9414;68.5124;295.2817;242.6728;0;-2.22E-6;0;Intelsat
0.98483848;0.0071712;4.9416;68.5121;295.2845;271.2962;0;-2.23E-6;0;Intelsat
0.98483894;0.0071677;4.9434;68.5078;295.3207;236.8154;0;-2.37E-6;0;Intelsat
0.98483906;0.0071675;4.9435;68.5077;295.3221;242.8169;0;-2.37E-6;0;Intelsat
0.98483858;0.0071629;4.9458;68.5025;295.3675;288.3861;0;-2.45E-6;0;Intelsat
0.98483712;0.0071596;4.9477;68.4984;295.4028;258.8228;0;-2.44E-6;0;Intelsat
0.98483693;0.0071592;4.9478;68.4981;295.406;284.2436;0;-2.44E-6;0;Intelsat
0.98483415;0.0071558;4.9499;68.4938;295.4433;280.0717;0;-2.35E-6;0;Intelsat
0.98483067;0.007153;4.9517;68.4899;295.476;250.4878;0;-2.2E-6;0;Intelsat
0.98483042;0.0071527;4.9519;68.4895;295.4795;275.9085;0;-2.19E-6;0;Intelsat
0.984826;0.0071495;4.9539;68.4854;295.5183;271.7325;0;-1.97E-6;0;Intelsat
0.98482067;0.0071462;4.9561;68.481;295.5641;295.9628;0;-1.68E-6;0;Intelsat
0.98481533;0.0071433;4.9581;68.4768;295.6073;288.7333;0;-1.38E-6;0;Intelsat
0.98481265;0.0071412;4.9591;68.4748;295.6274;106.8322;0;-1.22E-6;0;Intelsat
0.9848102;0.0071405;4.9601;68.4728;295.6517;284.6393;0;-1.06E-6;0;Intelsat
0.98480782;0.0071386;4.9611;68.4708;295.6746;102.647;0;-9.0E-7;0;Intelsat
0.98480577;0.0071381;4.962;68.4689;295.6944;255.9535;0;-7.7E-7;0;Intelsat
0.98480322;0.007136;4.9632;68.4666;295.7243;98.4598;0;-5.9E-7;0;Intelsat
0.98480121;0.0071349;4.9642;68.4643;295.7517;276.2536;0;-4.4E-7;0;Intelsat
0.98479952;0.0071332;4.9652;68.4623;295.7771;94.2772;0;-3.0E-7;0;Intelsat
0.98479795;0.0071322;4.9662;68.4601;295.8014;272.0639;0;-1.8E-7;0;Intelsat
0.98479566;0.007129;4.9683;68.4559;295.857;267.8794;0;4.0E-8;0;Intelsat
0.98479451;0.0071254;4.9703;68.4518;295.9131;254.6775;0;2.0E-7;0;Intelsat
0.98479477;0.0071218;4.9723;68.4475;295.9708;252.198;0;3.0E-7;0;Intelsat
0.98479609;0.0071181;4.9744;68.4433;296.0285;255.2763;0;3.3E-7;0;Intelsat
0.98479837;0.0071144;4.9765;68.4392;296.085;251.0984;0;2.8E-7;0;Intelsat
0.9848016;0.0071103;4.9785;68.435;296.1415;246.8981;0;1.7E-7;0;Intelsat
0.98480269;0.0071096;4.979;68.434;296.1507;335.8047;0;1.3E-7;0;Intelsat
0.98480601;0.0071063;4.9806;68.4308;296.194;247.397;0;-1.0E-8;0;Intelsat
0.98480627;0.0071061;4.9807;68.4306;296.1962;268.0813;0;-2.0E-8;0;Intelsat
0.98481487;0.0070977;4.9844;68.4228;296.2952;208.916;0;-4.7E-7;0;Intelsat
0.98481534;0.007097;4.9846;68.4224;296.2998;246.5191;0;-5.0E-7;0;Intelsat
0.98481984;0.0070922;4.9866;68.4181;296.3491;245.5511;0;-7.8E-7;0;Intelsat
0.98482371;0.0070878;4.9884;68.4142;296.3918;200.5601;0;-1.04E-6;0;Intelsat
0.98482405;0.0070873;4.9885;68.4139;296.3949;225.9577;0;-1.06E-6;0;Intelsat
0.98482793;0.0070821;4.9905;68.4094;296.4369;222.9504;0;-1.35E-6;0;Intelsat
0.98482927;0.0070799;4.9914;68.4073;296.4492;31.7782;0;-1.48E-6;0;Intelsat
0.98483133;0.0070757;4.9928;68.4039;296.4803;287.6072;0;-1.65E-6;0;Intelsat
0.9848335;0.0070701;4.9948;68.3992;296.5146;287.5607;0;-1.87E-6;0;Intelsat
0.98483463;0.0070639;4.9978;68.392;296.551;103.5703;0;-2.09E-6;0;Intelsat
0.98483445;0.0070611;4.9988;68.3894;296.5675;295.075;0;-2.13E-6;0;Intelsat
0.98483384;0.0070591;5.0001;68.3863;296.5794;173.1892;0;-2.16E-6;0;Intelsat
0.98483331;0.0070572;5.0009;68.3846;296.5907;304.3754;0;-2.16E-6;0;Intelsat
0.98483175;0.0070534;5.0028;68.3802;296.6111;285.6096;0;-2.14E-6;0;Intelsat
0.98482845;0.0070479;5.0054;68.3746;296.6366;36.1403;0;-2.01E-6;0;Intelsat
0.98482557;0.0070452;5.0071;68.3709;296.6574;347.3614;0;-1.88E-6;0;Intelsat
0.98482091;0.0070408;5.0097;68.3653;296.6837;104.0754;0;-1.62E-6;0;Intelsat
